[{"OBJECT_NAME":"STARLINK-1327","OBJECT_ID":"2020-025AA","EPOCH":"2026-03-10T00:00:02.999808","MEAN_MOTION":15.54084798,"ECCENTRICITY":0.00066285,"INCLINATION":53.0481,"RA_OF_ASC_NODE":65.1345,"ARG_OF_PERICENTER":60.0228,"MEAN_ANOMALY":82.823,"EPHEMERIS_TYPE":0,"CLASSIFICATION_TYPE":"U","NORAD_CAT_ID":45555,"ELEMENT_SET_NO":999,"REV_AT_EPOCH":591,"BSTAR":0.0019393015,"MEAN_MOTION_DOT":0.00129734,"MEAN_MOTION_DDOT":0},{"OBJECT_NAME":"FLOCK 4Q-25","OBJECT_ID":"2023-174AZ","EPOCH":"2026-03-09T17:21:45.287712","MEAN_MOTION":15.56567031,"ECCENTRICITY":0.00053011,"INCLINATION":97.3856,"RA_OF_ASC_NODE":158.7889,"ARG_OF_PERICENTER":135.0347,"MEAN_ANOMALY":225.1339,"EPHEMERIS_TYPE":0,"CLASSIFICATION_TYPE":"U","NORAD_CAT_ID":58303,"ELEMENT_SET_NO":999,"REV_AT_EPOCH":13047,"BSTAR":0.00071767971,"MEAN_MOTION_DOT":0.00051136,"MEAN_MOTION_DDOT":0}]
